[{"OBJECT_NAME":"STARLINK-3941","OBJECT_ID":"2022-052AS","EPOCH":"2026-03-09T20:00:03.329568","MEAN_MOTION":15.08843185,"ECCENTRICITY":0.00013416,"INCLINATION":53.2163,"RA_OF_ASC_NODE":268.4809,"ARG_OF_PERICENTER":90.3772,"MEAN_ANOMALY":269.7374,"EPHEMERIS_TYPE":0,"CLASSIFICATION_TYPE":"U","NORAD_CAT_ID":52638,"ELEMENT_SET_NO":999,"REV_AT_EPOCH":21182,"BSTAR":9.719511e-6,"MEAN_MOTION_DOT":-1.33e-6,"MEAN_MOTION_DDOT":0},{"OBJECT_NAME":"STARLING 3","OBJECT_ID":"2023-100D","EPOCH":"2026-03-09T22:41:57.048288","MEAN_MOTION":15.11145977,"ECCENTRICITY":0.00066311,"INCLINATION":99.5096,"RA_OF_ASC_NODE":65.6477,"ARG_OF_PERICENTER":76.1122,"MEAN_ANOMALY":284.0839,"EPHEMERIS_TYPE":0,"CLASSIFICATION_TYPE":"U","NORAD_CAT_ID":57389,"ELEMENT_SET_NO":999,"REV_AT_EPOCH":14507,"BSTAR":0.00051487914,"MEAN_MOTION_DOT":8.551e-5,"MEAN_MOTION_DDOT":0}]
